{"type": "FeatureCollection", "features": [ {"type": "Feature", "properties": {"norad_id": 34375, "name": "IRIDIUM 33 DEB", "group": "iridium-33-debris", "lat": 58.08299442011241, "lon": -172.18767598441718, "alt_km": 792.6626050812583, "timestamp": "2025-12-14T07:33:19.863356+00:00", "meta": {"OBJECT_NAME": "IRIDIUM 33 DEB", "OBJECT_ID": "1997-051FT", "EPOCH": "2025-12-13T12:44:43.081152", "MEAN_MOTION": 14.17994494, "ECCENTRICITY": 0.01033552, "INCLINATION": 86.4325, "RA_OF_ASC_NODE": 182.3799, "ARG_OF_PERICENTER": 124.2381, "MEAN_ANOMALY": 256.7084, "EPHEMERIS_TYPE": 0, "CLASSIFICATION_TYPE": "U", "NORAD_CAT_ID": 34375, "ELEMENT_SET_NO": 999, "REV_AT_EPOCH": 86723, "BSTAR": 0.00061178168, "MEAN_MOTION_DOT": 1.339e-05, "MEAN_MOTION_DDOT": 0}, "tle": {"line1": "1 34375U 97051FT  25347.53105418  .00001339  00000+0  61178-3 0  9993", "line2": "2 34375  86.4325 182.3799 0103355 124.2381 256.7084 14.17994494867239"}}, "geometry": {"type": "Point", "coordinates": [-172.18767598441718, 58.08299442011241]}}, {"type": "Feature", "properties": {"norad_id": 34376, "name": "IRIDIUM 33 DEB", "group": "iridium-33-debris", "lat": -35.70057529302123, "lon": 3.1661752381124537, "alt_km": 709.5386537888417, "timestamp": "2025-12-14T07:33:19.863367+00:00", "meta": {"OBJECT_NAME": "IRIDIUM 33 DEB", "OBJECT_ID": "1997-051FU", "EPOCH": "2025-12-13T05:26:52.439712", "MEAN_MOTION": 14.62582751, "ECCENTRICITY": 0.00272182, "INCLINATION": 86.2989, "RA_OF_ASC_NODE": 6.321, "ARG_OF_PERICENTER": 165.0092, "MEAN_ANOMALY": 195.1933, "EPHEMERIS_TYPE": 0, "CLASSIFICATION_TYPE": "U", "NORAD_CAT_ID": 34376, "ELEMENT_SET_NO": 999, "REV_AT_EPOCH": 88014, "BSTAR": 0.0024180552, "MEAN_MOTION_DOT": 0.00012374, "MEAN_MOTION_DDOT": 0}, "tle": {"line1": "1 34376U 97051FU  25347.22699583  .00012374  00000+0  24181-2 0  9994", "line2": "2 34376  86.2989   6.3210 0027218 165.0092 195.1933 14.62582751880145"}}, "geometry": {"type": "Point", "coordinates": [3.1661752381124537, -35.70057529302123]}}, {"type": "Feature", "properties": {"norad_id": 34486, "name": "IRIDIUM 33 DEB", "group": "iridium-33-debris", "lat": 8.860053041578988, "lon": 11.86112643682694, "alt_km": 583.0315183505691, "timestamp": "2025-12-14T07:33:19.863378+00:00", "meta": {"OBJECT_NAME": "IRIDIUM 33 DEB", "OBJECT_ID": "1997-051GB", "EPOCH": "2025-12-13T12:48:30.008160", "MEAN_MOTION": 14.9585814, "ECCENTRICITY": 0.00137339, "INCLINATION": 86.394, "RA_OF_ASC_NODE": 11.6583, "ARG_OF_PERICENTER": 111.1727, "MEAN_ANOMALY": 14.2632, "EPHEMERIS_TYPE": 0, "CLASSIFICATION_TYPE": "U", "NORAD_CAT_ID": 34486, "ELEMENT_SET_NO": 999, "REV_AT_EPOCH": 88998, "BSTAR": 0.0024346584, "MEAN_MOTION_DOT": 0.00027349, "MEAN_MOTION_DDOT": 0}, "tle": {"line1": "1 34486U 97051GB  25347.53368065  .00027349  00000+0  24347-2 0  9990", "line2": "2 34486  86.3940  11.6583 0013733 111.1727  14.2632 14.95858140889983"}}, "geometry": {"type": "Point", "coordinates": [11.86112643682694, 8.860053041578988]}}, {"type": "Feature", "properties": {"norad_id": 34487, "name": "IRIDIUM 33 DEB", "group": "iridium-33-debris", "lat": 84.76558739091097, "lon": 55.96813018241947, "alt_km": 721.7365780418304, "timestamp": "2025-12-14T07:33:19.863389+00:00", "meta": {"OBJECT_NAME": "IRIDIUM 33 DEB", "OBJECT_ID": "1997-051GC", "EPOCH": "2025-12-13T01:29:47.810688", "MEAN_MOTION": 14.43216844, "ECCENTRICITY": 0.00327796, "INCLINATION": 86.3434, "RA_OF_ASC_NODE": 12.2383, "ARG_OF_PERICENTER": 127.3536, "MEAN_ANOMALY": 296.0452, "EPHEMERIS_TYPE": 0, "CLASSIFICATION_TYPE": "U", "NORAD_CAT_ID": 34487, "ELEMENT_SET_NO": 999, "REV_AT_EPOCH": 88253, "BSTAR": 0.00027272149, "MEAN_MOTION_DOT": 9.43e-06, "MEAN_MOTION_DDOT": 0}, "tle": {"line1": "1 34487U 97051GC  25347.06235892  .00000943  00000+0  27272-3 0  9992", "line2": "2 34487  86.3434  12.2383 0032779 127.3536 296.0452 14.43216844882531"}}, "geometry": {"type": "Point", "coordinates": [55.96813018241947, 84.76558739091097]}}, {"type": "Feature", "properties": {"norad_id": 34488, "name": "IRIDIUM 33 DEB", "group": "iridium-33-debris", "lat": -4.150568976968901, "lon": 125.30077594415303, "alt_km": 486.1079019909239, "timestamp": "2025-12-14T07:33:19.863399+00:00", "meta": {"OBJECT_NAME": "IRIDIUM 33 DEB", "OBJECT_ID": "1997-051GD", "EPOCH": "2025-12-13T15:03:19.437120", "MEAN_MOTION": 15.29719693, "ECCENTRICITY": 0.00126504, "INCLINATION": 86.3232, "RA_OF_ASC_NODE": 305.3742, "ARG_OF_PERICENTER": 50.2774, "MEAN_ANOMALY": 309.9587, "EPHEMERIS_TYPE": 0, "CLASSIFICATION_TYPE": "U", "NORAD_CAT_ID": 34488, "ELEMENT_SET_NO": 999, "REV_AT_EPOCH": 89253, "BSTAR": 0.0044788684, "MEAN_MOTION_DOT": 0.00131221, "MEAN_MOTION_DDOT": 0}, "tle": {"line1": "1 34488U 97051GD  25347.62730830  .00131221  00000+0  44789-2 0  9992", "line2": "2 34488  86.3232 305.3742 0012650  50.2774 309.9587 15.29719693892536"}}, "geometry": {"type": "Point", "coordinates": [125.30077594415303, -4.150568976968901]}}, {"type": "Feature", "properties": {"norad_id": 34492, "name": "IRIDIUM 33 DEB", "group": "iridium-33-debris", "lat": 76.04936497620764, "lon": -11.628857374413354, "alt_km": 922.9690377932338, "timestamp": "2025-12-14T07:33:19.863409+00:00", "meta": {"OBJECT_NAME": "IRIDIUM 33 DEB", "OBJECT_ID": "1997-051GH", "EPOCH": "2025-12-12T23:19:24.163680", "MEAN_MOTION": 14.25737057, "ECCENTRICITY": 0.01891196, "INCLINATION": 86.4723, "RA_OF_ASC_NODE": 334.5351, "ARG_OF_PERICENTER": 237.4159, "MEAN_ANOMALY": 151.0038, "EPHEMERIS_TYPE": 0, "CLASSIFICATION_TYPE": "U", "NORAD_CAT_ID": 34492, "ELEMENT_SET_NO": 999, "REV_AT_EPOCH": 85062, "BSTAR": 0.0063651158, "MEAN_MOTION_DOT": 0.00018276, "MEAN_MOTION_DDOT": 0}, "tle": {"line1": "1 34492U 97051GH  25346.97180745  .00018276  00000+0  63651-2 0  9991", "line2": "2 34492  86.4723 334.5351 0189119 237.4159 151.0038 14.25737057850628"}}, "geometry": {"type": "Point", "coordinates": [-11.628857374413354, 76.04936497620764]}}, {"type": "Feature", "properties": {"norad_id": 34497, "name": "IRIDIUM 33 DEB", "group": "iridium-33-debris", "lat": -34.78394660309525, "lon": 49.13690402606415, "alt_km": 750.7503180853028, "timestamp": "2025-12-14T07:33:19.863420+00:00", "meta": {"OBJECT_NAME": "IRIDIUM 33 DEB", "OBJECT_ID": "1997-051GN", "EPOCH": "2025-12-13T15:30:28.114272", "MEAN_MOTION": 14.27457632, "ECCENTRICITY": 0.00787124, "INCLINATION": 86.2778, "RA_OF_ASC_NODE": 52.0141, "ARG_OF_PERICENTER": 336.6092, "MEAN_ANOMALY": 154.8087, "EPHEMERIS_TYPE": 0, "CLASSIFICATION_TYPE": "U", "NORAD_CAT_ID": 34497, "ELEMENT_SET_NO": 999, "REV_AT_EPOCH": 86896, "BSTAR": 0.0008195509, "MEAN_MOTION_DOT": 2.096e-05, "MEAN_MOTION_DDOT": 0}, "tle": {"line1": "1 34497U 97051GN  25347.64615873  .00002096  00000+0  81955-3 0  9997", "line2": "2 34497  86.2778  52.0141 0078712 336.6092 154.8087 14.27457632868965"}}, "geometry": {"type": "Point", "coordinates": [49.13690402606415, -34.78394660309525]}}, {"type": "Feature", "properties": {"norad_id": 34508, "name": "IRIDIUM 33 DEB", "group": "iridium-33-debris", "lat": -5.934142959188921, "lon": -77.64693372375457, "alt_km": 722.5206136935767, "timestamp": "2025-12-14T07:33:19.863430+00:00", "meta": {"OBJECT_NAME": "IRIDIUM 33 DEB", "OBJECT_ID": "1997-051GZ", "EPOCH": "2025-12-12T17:57:57.853728", "MEAN_MOTION": 14.3842932, "ECCENTRICITY": 0.00660592, "INCLINATION": 86.3696, "RA_OF_ASC_NODE": 102.6391, "ARG_OF_PERICENTER": 172.9661, "MEAN_ANOMALY": 187.2481, "EPHEMERIS_TYPE": 0, "CLASSIFICATION_TYPE": "U", "NORAD_CAT_ID": 34508, "ELEMENT_SET_NO": 999, "REV_AT_EPOCH": 87309, "BSTAR": 0.002129503, "MEAN_MOTION_DOT": 6.683e-05, "MEAN_MOTION_DDOT": 0}, "tle": {"line1": "1 34508U 97051GZ  25346.74858627  .00006683  00000+0  21295-2 0  9992", "line2": "2 34508  86.3696 102.6391 0066059 172.9661 187.2481 14.38429320873094"}}, "geometry": {"type": "Point", "coordinates": [-77.64693372375457, -5.934142959188921]}}, {"type": "Feature", "properties": {"norad_id": 34521, "name": "IRIDIUM 33 DEB", "group": "iridium-33-debris", "lat": 35.28257419118935, "lon": -152.7121261323955, "alt_km": 679.4558132405009, "timestamp": "2025-12-14T07:33:19.863441+00:00", "meta": {"OBJECT_NAME": "IRIDIUM 33 DEB", "OBJECT_ID": "1997-051HN", "EPOCH": "2025-12-13T12:50:41.718912", "MEAN_MOTION": 14.63378229, "ECCENTRICITY": 0.00016341, "INCLINATION": 86.3806, "RA_OF_ASC_NODE": 30.1979, "ARG_OF_PERICENTER": 209.548, "MEAN_ANOMALY": 150.564, "EPHEMERIS_TYPE": 0, "CLASSIFICATION_TYPE": "U", "NORAD_CAT_ID": 34521, "ELEMENT_SET_NO": 999, "REV_AT_EPOCH": 88484, "BSTAR": 0.0010694901, "MEAN_MOTION_DOT": 5.548e-05, "MEAN_MOTION_DDOT": 0}, "tle": {"line1": "1 34521U 97051HN  25347.53520508  .00005548  00000+0  10695-2 0  9990", "line2": "2 34521  86.3806  30.1979 0001634 209.5480 150.5640 14.63378229884847"}}, "geometry": {"type": "Point", "coordinates": [-152.7121261323955, 35.28257419118935]}}, {"type": "Feature", "properties": {"norad_id": 34525, "name": "IRIDIUM 33 DEB", "group": "iridium-33-debris", "lat": -27.8152435206838, "lon": -131.91074731885394, "alt_km": 756.9059816273357, "timestamp": "2025-12-14T07:33:19.863451+00:00", "meta": {"OBJECT_NAME": "IRIDIUM 33 DEB", "OBJECT_ID": "1997-051HS", "EPOCH": "2025-12-13T16:11:18.522816", "MEAN_MOTION": 14.42909183, "ECCENTRICITY": 0.00066446, "INCLINATION": 86.3731, "RA_OF_ASC_NODE": 46.4448, "ARG_OF_PERICENTER": 93.1632, "MEAN_ANOMALY": 30.6633, "EPHEMERIS_TYPE": 0, "CLASSIFICATION_TYPE": "U", "NORAD_CAT_ID": 34525, "ELEMENT_SET_NO": 999, "REV_AT_EPOCH": 88101, "BSTAR": 0.00049523387, "MEAN_MOTION_DOT": 1.674e-05, "MEAN_MOTION_DDOT": 0}, "tle": {"line1": "1 34525U 97051HS  25347.67451994  .00001674  00000+0  49523-3 0  9990", "line2": "2 34525  86.3731  46.4448 0006644  93.1632  30.6633 14.42909183881013"}}, "geometry": {"type": "Point", "coordinates": [-131.91074731885394, -27.8152435206838]}}]}